start=new Date('2022-12-22T00:00:00.000Z').valueOf();
sats=[{"INCLINATION":"53.2194","SEMIMAJOR_AXIS":"6917.915","OBJECT_ID":"2022-041AF","OBJECT_NAME":"STARLINK-3772","SITE":"AFETR","TLE_LINE2":"2 52290  53.2194 330.4915 0002589  31.3175 328.7971 15.08828712 38441","FILE":"3716017","CENTER_NAME":"EARTH","COUNTRY_CODE":"US","APOAPSIS":"541.571","PERIAPSIS":"537.989","TLE_LINE1":"1 52290U 22041AF  22355.45029708 -.00001794  00000-0 -94670-4 0  9992","BSTAR":"-0.00009467000000","REV_AT_EPOCH":"3844","OBJECT_TYPE":"PAYLOAD","LAUNCH_DATE":"2022-04-21","NORAD_CAT_ID":"52290","EPOCH":"2022-12-21T10:48:25.667712","CLASSIFICATION_TYPE":"U","RCS_SIZE":"LARGE","TIME_SYSTEM":"UTC","MEAN_MOTION_DOT":"-0.00001794","ARG_OF_PERICENTER":"31.3175","RA_OF_ASC_NODE":"330.4915","REF_FRAME":"TEME","DECAY_DATE":null,"ELEMENT_SET_NO":"999","EPHEMERIS_TYPE":"0","MEAN_ELEMENT_THEORY":"SGP4","MEAN_ANOMALY":"328.7971","PERIOD":"95.438","ECCENTRICITY":"0.00025890","MEAN_MOTION":"15.08828712","GP_ID":"221083798","MEAN_MOTION_DDOT":"0.0000000000000"},{"MEAN_MOTION_DDOT":"0.0000000000000","MEAN_MOTION":"15.08832418","GP_ID":"221126933","ECCENTRICITY":"0.00027150","MEAN_ELEMENT_THEORY":"SGP4","EPHEMERIS_TYPE":"0","PERIOD":"95.438","MEAN_ANOMALY":"334.1902","RA_OF_ASC_NODE":"329.5070","ARG_OF_PERICENTER":"25.9225","MEAN_MOTION_DOT":"-0.00000008","TIME_SYSTEM":"UTC","ELEMENT_SET_NO":"999","REF_FRAME":"TEME","DECAY_DATE":null,"EPOCH":"2022-12-21T15:59:40.491168","NORAD_CAT_ID":"52291","RCS_SIZE":"LARGE","CLASSIFICATION_TYPE":"U","BSTAR":"0.00001765300000","TLE_LINE1":"1 52291U 22041AG  22355.66644087 -.00000008  00000-0  17653-4 0  9991","PERIAPSIS":"537.890","OBJECT_TYPE":"PAYLOAD","LAUNCH_DATE":"2022-04-21","REV_AT_EPOCH":"3848","APOAPSIS":"541.647","COUNTRY_CODE":"US","TLE_LINE2":"2 52291  53.2164 329.5070 0002715  25.9225 334.1902 15.08832418 38483","CENTER_NAME":"EARTH","FILE":"3716926","SEMIMAJOR_AXIS":"6917.904","INCLINATION":"53.2164","SITE":"AFETR","OBJECT_NAME":"STARLINK-3773","OBJECT_ID":"2022-041AG"},{"PERIAPSIS":"538.355","TLE_LINE1":"1 52292U 22041AH  22355.64437354 -.00002154  00000-0 -11730-3 0  9991","BSTAR":"-0.00011730000000","REV_AT_EPOCH":"3848","LAUNCH_DATE":"2022-04-21","OBJECT_TYPE":"PAYLOAD","COUNTRY_CODE":"US","APOAPSIS":"541.228","TLE_LINE2":"2 52292  53.2199 329.6184 0002076  41.3452 318.7697 15.08824960 38485","FILE":"3716926","CENTER_NAME":"EARTH","INCLINATION":"53.2199","SEMIMAJOR_AXIS":"6917.926","OBJECT_ID":"2022-041AH","OBJECT_NAME":"STARLINK-3753","SITE":"AFETR","ECCENTRICITY":"0.00020760","GP_ID":"221126934","MEAN_MOTION":"15.08824960","MEAN_MOTION_DDOT":"0.0000000000000","EPHEMERIS_TYPE":"0","MEAN_ELEMENT_THEORY":"SGP4","MEAN_ANOMALY":"318.7697","PERIOD":"95.439","TIME_SYSTEM":"UTC","MEAN_MOTION_DOT":"-0.00002154","RA_OF_ASC_NODE":"329.6184","ARG_OF_PERICENTER":"41.3452","DECAY_DATE":null,"REF_FRAME":"TEME","ELEMENT_SET_NO":"999","NORAD_CAT_ID":"52292","EPOCH":"2022-12-21T15:27:53.873856","CLASSIFICATION_TYPE":"U","RCS_SIZE":"LARGE"},{"MEAN_MOTION_DOT":"-0.00002183","ARG_OF_PERICENTER":"29.3551","RA_OF_ASC_NODE":"331.0565","TIME_SYSTEM":"UTC","REF_FRAME":"TEME","DECAY_DATE":null,"ELEMENT_SET_NO":"999","EPOCH":"2022-12-21T07:46:52.444704","NORAD_CAT_ID":"52293","CLASSIFICATION_TYPE":"U","RCS_SIZE":"LARGE","GP_ID":"221119477","MEAN_MOTION":"15.08825978","MEAN_MOTION_DDOT":"0.0000000000000","ECCENTRICITY":"0.00024670","EPHEMERIS_TYPE":"0","MEAN_ELEMENT_THEORY":"SGP4","PERIOD":"95.438","MEAN_ANOMALY":"330.7579","TLE_LINE2":"2 52293  53.2182 331.0565 0002467  29.3551 330.7579 15.08825978 37211","CENTER_NAME":"EARTH","FILE":"3716551","SEMIMAJOR_AXIS":"6917.923","INCLINATION":"53.2182","OBJECT_NAME":"STARLINK-3771","SITE":"AFETR","OBJECT_ID":"2022-041AJ","TLE_LINE1":"1 52293U 22041AJ  22355.32421811 -.00002183  00000-0 -11914-3 0  9994","BSTAR":"-0.00011914000000","PERIAPSIS":"538.082","OBJECT_TYPE":"PAYLOAD","LAUNCH_DATE":"2022-04-21","REV_AT_EPOCH":"3721","APOAPSIS":"541.495","COUNTRY_CODE":"US"},{"TLE_LINE2":"2 52294  53.2188 330.8296 0002234  36.7791 323.3354 15.08826806 38442","CENTER_NAME":"EARTH","FILE":"3716927","SEMIMAJOR_AXIS":"6917.921","INCLINATION":"53.2188","SITE":"AFETR","OBJECT_NAME":"STARLINK-3777","OBJECT_ID":"2022-041AK","BSTAR":"-0.00014423000000","TLE_LINE1":"1 52294U 22041AK  22355.37573740 -.00002582  00000-0 -14423-3 0  9990","PERIAPSIS":"538.240","LAUNCH_DATE":"2022-04-21","OBJECT_TYPE":"PAYLOAD","REV_AT_EPOCH":"3844","APOAPSIS":"541.331","COUNTRY_CODE":"US","ARG_OF_PERICENTER":"36.7791","RA_OF_ASC_NODE":"330.8296","MEAN_MOTION_DOT":"-0.00002582","TIME_SYSTEM":"UTC","ELEMENT_SET_NO":"999","REF_FRAME":"TEME","DECAY_DATE":null,"EPOCH":"2022-12-21T09:01:03.711360","NORAD_CAT_ID":"52294","RCS_SIZE":"MEDIUM","CLASSIFICATION_TYPE":"U","MEAN_MOTION_DDOT":"0.0000000000000","GP_ID":"221126940","MEAN_MOTION":"15.08826806","ECCENTRICITY":"0.00022340","MEAN_ELEMENT_THEORY":"SGP4","EPHEMERIS_TYPE":"0","PERIOD":"95.438","MEAN_ANOMALY":"323.3354"},{"EPHEMERIS_TYPE":"0","MEAN_ELEMENT_THEORY":"SGP4","MEAN_ANOMALY":"324.9681","PERIOD":"95.438","ECCENTRICITY":"0.00021930","GP_ID":"221085359","MEAN_MOTION":"15.08832705","MEAN_MOTION_DDOT":"0.0000000000000","NORAD_CAT_ID":"52295","EPOCH":"2022-12-21T10:52:19.922304","CLASSIFICATION_TYPE":"U","RCS_SIZE":"LARGE","TIME_SYSTEM":"UTC","MEAN_MOTION_DOT":"0.00000503","ARG_OF_PERICENTER":"35.1455","RA_OF_ASC_NODE":"330.4690","REF_FRAME":"TEME","DECAY_DATE":null,"ELEMENT_SET_NO":"999","COUNTRY_CODE":"US","APOAPSIS":"541.285","PERIAPSIS":"538.251","TLE_LINE1":"1 52295U 22041AL  22355.45300836  .00000503  00000-0  49752-4 0  9997","BSTAR":"0.00004975200000","REV_AT_EPOCH":"3845","OBJECT_TYPE":"PAYLOAD","LAUNCH_DATE":"2022-04-21","INCLINATION":"53.2198","SEMIMAJOR_AXIS":"6917.903","OBJECT_ID":"2022-041AL","OBJECT_NAME":"STARLINK-3765","SITE":"AFETR","TLE_LINE2":"2 52295  53.2198 330.4690 0002193  35.1455 324.9681 15.08832705 38458","FILE":"3716047","CENTER_NAME":"EARTH"},{"ECCENTRICITY":"0.00020370","MEAN_MOTION_DDOT":"0.0000000000000","GP_ID":"221118227","MEAN_MOTION":"15.08829123","MEAN_ELEMENT_THEORY":"SGP4","EPHEMERIS_TYPE":"0","MEAN_ANOMALY":"330.5077","PERIOD":"95.438","TIME_SYSTEM":"UTC","RA_OF_ASC_NODE":"330.8829","ARG_OF_PERICENTER":"29.6030","MEAN_MOTION_DOT":"-0.00001817","ELEMENT_SET_NO":"999","REF_FRAME":"TEME","DECAY_DATE":null,"NORAD_CAT_ID":"52296","EPOCH":"2022-12-21T08:45:09.541728","RCS_SIZE":"LARGE","CLASSIFICATION_TYPE":"U","PERIAPSIS":"538.369","BSTAR":"-0.00009610800000","TLE_LINE1":"1 52296U 22041AM  22355.36469377 -.00001817  00000-0 -96108-4 0  9992","REV_AT_EPOCH":"3722","OBJECT_TYPE":"PAYLOAD","LAUNCH_DATE":"2022-04-21","COUNTRY_CODE":"US","APOAPSIS":"541.188","TLE_LINE2":"2 52296  53.2180 330.8829 0002037  29.6030 330.5077 15.08829123 37228","FILE":"3716551","CENTER_NAME":"EARTH","INCLINATION":"53.2180","SEMIMAJOR_AXIS":"6917.914","OBJECT_ID":"2022-041AM","SITE":"AFETR","OBJECT_NAME":"STARLINK-3766"},{"ECCENTRICITY":"0.00027250","GP_ID":"221118978","MEAN_MOTION":"15.08829252","MEAN_MOTION_DDOT":"0.0000000000000","MEAN_ANOMALY":"340.5226","PERIOD":"95.438","EPHEMERIS_TYPE":"0","MEAN_ELEMENT_THEORY":"SGP4","DECAY_DATE":null,"REF_FRAME":"TEME","ELEMENT_SET_NO":"999","TIME_SYSTEM":"UTC","MEAN_MOTION_DOT":"-0.00000216","ARG_OF_PERICENTER":"19.5871","RA_OF_ASC_NODE":"330.4893","CLASSIFICATION_TYPE":"U","RCS_SIZE":"LARGE","NORAD_CAT_ID":"52297","EPOCH":"2022-12-21T10:47:02.215680","REV_AT_EPOCH":"3723","LAUNCH_DATE":"2022-04-21","OBJECT_TYPE":"PAYLOAD","PERIAPSIS":"537.893","TLE_LINE1":"1 52297U 22041AN  22355.44933120 -.00000216  00000-0  45267-5 0  9996","BSTAR":"0.00000452670000","COUNTRY_CODE":"US","APOAPSIS":"541.663","FILE":"3716551","CENTER_NAME":"EARTH","TLE_LINE2":"2 52297  53.2186 330.4893 0002725  19.5871 340.5226 15.08829252 37238","OBJECT_ID":"2022-041AN","OBJECT_NAME":"STARLINK-3758","SITE":"AFETR","INCLINATION":"53.2186","SEMIMAJOR_AXIS":"6917.913"},{"MEAN_MOTION_DDOT":"0.0000000000000","MEAN_MOTION":"15.08835308","GP_ID":"221082944","ECCENTRICITY":"0.00024760","PERIOD":"95.438","MEAN_ANOMALY":"316.6011","MEAN_ELEMENT_THEORY":"SGP4","EPHEMERIS_TYPE":"0","ELEMENT_SET_NO":"999","REF_FRAME":"TEME","DECAY_DATE":null,"RA_OF_ASC_NODE":"330.6002","ARG_OF_PERICENTER":"43.5176","MEAN_MOTION_DOT":"-0.00000314","TIME_SYSTEM":"UTC","RCS_SIZE":"LARGE","CLASSIFICATION_TYPE":"U","EPOCH":"2022-12-21T10:15:15.295104","NORAD_CAT_ID":"52298","OBJECT_TYPE":"PAYLOAD","LAUNCH_DATE":"2022-04-21","REV_AT_EPOCH":"3844","BSTAR":"-0.00000158030000","TLE_LINE1":"1 52298U 22041AP  22355.42726036 -.00000314  00000-0 -15803-5 0  9994","PERIAPSIS":"538.047","APOAPSIS":"541.473","COUNTRY_CODE":"US","CENTER_NAME":"EARTH","FILE":"3715974","TLE_LINE2":"2 52298  53.2168 330.6002 0002476  43.5176 316.6011 15.08835308 38440","SITE":"AFETR","OBJECT_NAME":"STARLINK-3760","OBJECT_ID":"2022-041AP","SEMIMAJOR_AXIS":"6917.895","INCLINATION":"53.2168"},{"INCLINATION":"53.2199","SEMIMAJOR_AXIS":"6917.902","OBJECT_ID":"2022-041AQ","OBJECT_NAME":"STARLINK-3759","SITE":"AFETR","TLE_LINE2":"2 52299  53.2199 329.6706 0001656  42.6931 317.4189 15.08832825 38482","FILE":"3716927","CENTER_NAME":"EARTH","COUNTRY_CODE":"US","APOAPSIS":"540.913","PERIAPSIS":"538.622","TLE_LINE1":"1 52299U 22041AQ  22355.63332818 -.00000006  00000-0  17712-4 0  9996","BSTAR":"0.00001771200000","REV_AT_EPOCH":"3848","OBJECT_TYPE":"PAYLOAD","LAUNCH_DATE":"2022-04-21","NORAD_CAT_ID":"52299","EPOCH":"2022-12-21T15:11:59.554752","CLASSIFICATION_TYPE":"U","RCS_SIZE":"LARGE","TIME_SYSTEM":"UTC","MEAN_MOTION_DOT":"-0.00000006","RA_OF_ASC_NODE":"329.6706","ARG_OF_PERICENTER":"42.6931","REF_FRAME":"TEME","DECAY_DATE":null,"ELEMENT_SET_NO":"999","EPHEMERIS_TYPE":"0","MEAN_ELEMENT_THEORY":"SGP4","MEAN_ANOMALY":"317.4189","PERIOD":"95.438","ECCENTRICITY":"0.00016560","MEAN_MOTION":"15.08832825","GP_ID":"221126945","MEAN_MOTION_DDOT":"0.0000000000000"}];
